ONEWEB-0446             
1 51640U 22012U   24257.76769343 -.00000538  00000+0 -15775-2 0  9992
2 51640  87.8986 163.9232 0002142  71.6425 288.4935 13.10371250126623
ONEWEB-0448             
1 51641U 22012V   24257.77267267 -.00000660  00000+0 -19274-2 0  9996
2 51641  87.8991 163.9231 0001740  76.3593 283.7728 13.10372611126585
ONEWEB-0449             
1 51642U 22012W   24257.77765197 -.00000566  00000+0 -16588-2 0  9992
2 51642  87.8989 163.9127 0001820  65.1900 294.9416 13.10374191126600
ONEWEB-0451             
1 51643U 22012X   24258.08001711  .00000140  00000+0  32742-3 0  9990
2 51643  87.9138 133.5519 0001710  76.9273 283.2050 13.17647520130535
ONEWEB-0452             
1 51644U 22012Y   24257.39498197  .00000041  00000+0  72904-4 0  9997
2 51644  87.9145 133.7333 0001503  66.9239 293.2051 13.17649834130454
ONEWEB-0456             
1 51646U 22012AA  24258.47485196  .00001010  00000+0  28575-2 0  9994
2 51646  87.8985 163.7436 0001983  82.8154 277.3198 13.10370962126725
ONEWEB-0457             
1 51647U 22012AB  24257.76437975  .00000336  00000+0  92742-3 0  9996
2 51647  87.8994 163.9143 0001830  67.9439 292.1883 13.10368292126644
ONEWEB-0458             
1 51648U 22012AC  24257.78596229 -.00000282  00000+0 -84447-3 0  9992
2 51648  87.8997 163.9263 0001648  71.4213 288.7093 13.10374683126609
